OBJECT_NAME,OBJECT_ID,EPOCH,MEAN_MOTION,ECCENTRICITY,INCLINATION,RA_OF_ASC_NODE,ARG_OF_PERICENTER,MEAN_ANOMALY,EPHEMERIS_TYPE,CLASSIFICATION_TYPE,NORAD_CAT_ID,ELEMENT_SET_NO,REV_AT_EPOCH,BSTAR,MEAN_MOTION_DOT,MEAN_MOTION_DDOT
GEOSCAN 3 (RS92S3),2025-155T,2026-07-11T04:04:37.465248,15.36216129,.0008648,97.4541,162.3413,97.7306,262.4920,0,U,64893,999,8453,.32468E-3,.11395E-3,0
INNOSAT 3 (RS92S0),2025-155U,2026-07-11T03:38:10.608288,15.45604456,.0008329,97.4487,164.2527,100.1234,260.0955,0,U,64894,999,8466,.54186E-3,.2607E-3,0
KNACKSAT-2,1998-067XZ,2026-07-10T23:20:58.094304,15.62098175,.0008149,51.6257,174.6435,313.7973,46.2347,0,U,67683,999,2399,.37398E-3,.33075E-3,0
