GEOSCAN-3 (RS92S3)
1 64893U 25155T   26192.16987807  .00011395  00000-0  32468-3 0  9999
2 64893  97.4541 162.3413 0008648  97.7306 262.4920 15.36216129 84531
INNOSAT3 (RS92S0)
1 64894U 25155U   26192.15151167  .00026070  00000-0  54186-3 0  9998
2 64894  97.4487 164.2527 0008329 100.1234 260.0955 15.45604456 84663
KNACKSAT-2
1 67683U 98067XZ  26191.97289461  .00033075  00000-0  37398-3 0  9996
2 67683  51.6257 174.6435 0008149 313.7973  46.2347 15.62098175 23996
